[{"OBJECT_NAME":"PELICAN-6","OBJECT_ID":"2025-276AP","EPOCH":"2026-03-09T16:58:12.890496","MEAN_MOTION":15.2637798,"ECCENTRICITY":0.0003569,"INCLINATION":97.4276,"RA_OF_ASC_NODE":144.2072,"ARG_OF_PERICENTER":157.8575,"MEAN_ANOMALY":202.2819,"EPHEMERIS_TYPE":0,"CLASSIFICATION_TYPE":"U","NORAD_CAT_ID":66703,"ELEMENT_SET_NO":999,"REV_AT_EPOCH":1533,"BSTAR":0.0029725783,"MEAN_MOTION_DOT":0.00077979,"MEAN_MOTION_DDOT":0},{"OBJECT_NAME":"STARLINK-36549","OBJECT_ID":"2026-012T","EPOCH":"2026-03-09T01:56:02.070528","MEAN_MOTION":15.275761,"ECCENTRICITY":0.00015637,"INCLINATION":42.9999,"RA_OF_ASC_NODE":317.3954,"ARG_OF_PERICENTER":262.2929,"MEAN_ANOMALY":97.7745,"EPHEMERIS_TYPE":0,"CLASSIFICATION_TYPE":"U","NORAD_CAT_ID":67510,"ELEMENT_SET_NO":999,"REV_AT_EPOCH":767,"BSTAR":0.00081220898,"MEAN_MOTION_DOT":0.00022153,"MEAN_MOTION_DDOT":0}]
